IRIDIUM 26              
1 24903U 97043A   26025.48794953  .00000754  00000+0  24618-3 0  9994
2 24903  86.3954  17.1663 0002403  86.3453 273.8019 14.37371870488671
IRIDIUM 22              
1 24907U 97043E   26025.46372310  .00000651  00000+0  21694-3 0  9992
2 24907  86.3954  20.9069 0002194  85.2474 274.8974 14.36159837488672
DUMMY MASS 1            
1 24925U 97048A   26025.47361299  .00000727  00000+0  77533-4 0  9990
2 24925  86.3321  32.4558 0009034  81.1806 279.0442 14.87227104538161
DUMMY MASS 2            
1 24926U 97048B   26025.47292526  .00000717  00000+0  76974-4 0  9994
2 24926  86.3319  34.1048 0009829  90.0648 270.1703 14.86977295537935
IRIDIUM 29              
1 24944U 97051A   26025.47498440  .00000640  00000+0  21082-3 0  9995
2 24944  86.3917  50.5685 0002044  90.2031 269.9400 14.36703718485189
IRIDIUM 33              
1 24946U 97051C   26025.49563306  .00000495  00000+0  16651-3 0  9997
2 24946  86.3831  49.8432 0009977  76.4888 283.7419 14.35072303484625
IRIDIUM 28              
1 24948U 97051E   26025.51743772  .00000611  00000+0  19705-3 0  9992
2 24948  86.3924  47.9396 0002770  86.9250 273.2264 14.37604157485781
IRIDIUM 36              
1 24967U 97056C   26025.51570946  .00000684  00000+0  22041-3 0  9996
2 24967  86.3930  79.5723 0002366  87.4666 272.6802 14.37832007484161
